O3B MPOWER F1           
1 54755U 22174A   24226.71865023 -.00000016  00000+0  00000+0 0  9996
2 54755   0.0582 346.9765 0006726 151.1764 236.8551  5.00113887 31714
